CELESTIS-02             
1 25160U 98007D   08197.78594013 -.00000099  00000-0  13765-4 0  8039
2 25160 107.9845 126.8683 0063618 184.0508 176.0109 14.20812738540665
CELESTIS-03             
1 26034U 99070C   08197.76290565  .00000585  00000-0  85813-4 0  2894
2 26034  98.3612 189.3936 0018756 352.5182   7.5717 14.79505785460578
AMC-14                  
1 32708U 08011A   08199.01417120 -.00000068  00000-0  10000-3 0  1466
2 32708  18.4271 140.9244 2340461  22.6165 149.2828  1.37411314  2305
